{
  "type": "FeatureCollection",
  "features": [
    {
      "type": "Feature",
      "properties": {
        "norad_id": 31150,
        "name": "FENGYUN 1C DEB",
        "group": "fengyun-1c-debris",
        "lat": -78.76026201407909,
        "lon": 53.84517381851226,
        "alt_km": 866.1042734931543,
        "timestamp": "2025-12-21T03:56:51.116317+00:00",
        "meta_object_name": "FENGYUN 1C DEB",
        "meta_object_id": "1999-025BHC",
        "meta_epoch": "2025-12-20T12:03:49.060224",
        "meta_mean_motion": 14.12737693,
        "meta_eccentricity": 0.00156358,
        "meta_inclination": 98.6853,
        "meta_ra_of_asc_node": 2.9234,
        "meta_arg_of_pericenter": 138.1428,
        "meta_mean_anomaly": 14.8315,
        "meta_ephemeris_type": 0,
        "meta_classification_type": "U",
        "meta_norad_cat_id": 31150,
        "meta_element_set_no": 999,
        "meta_rev_at_epoch": 96406,
        "meta_bstar": 0.00012292185,
        "meta_mean_motion_dot": 1.86e-06,
        "meta_mean_motion_ddot": 0,
        "tle_line1": "1 31150U 99025BHC 25354.50265116  .00000186  00000+0  12292-3 0  9993",
        "tle_line2": "2 31150  98.6853   2.9234 0015635 138.1428  14.8315 14.12737693964068"
      },
      "geometry": {
        "type": "Point",
        "coordinates": [
          53.84517381851226,
          -78.76026201407909
        ]
      }
    },
    {
      "type": "Feature",
      "properties": {
        "norad_id": 31151,
        "name": "FENGYUN 1C DEB",
        "group": "fengyun-1c-debris",
        "lat": 62.340429025820015,
        "lon": -161.17055824400708,
        "alt_km": 816.4962536702924,
        "timestamp": "2025-12-21T03:56:51.116326+00:00",
        "meta_object_name": "FENGYUN 1C DEB",
        "meta_object_id": "1999-025BHD",
        "meta_epoch": "2025-12-18T11:24:41.798592",
        "meta_mean_motion": 14.25869717,
        "meta_eccentricity": 0.00564144,
        "meta_inclination": 99.1347,
        "meta_ra_of_asc_node": 358.1502,
        "meta_arg_of_pericenter": 8.5947,
        "meta_mean_anomaly": 351.6184,
        "meta_ephemeris_type": 0,
        "meta_classification_type": "U",
        "meta_norad_cat_id": 31151,
        "meta_element_set_no": 999,
        "meta_rev_at_epoch": 96056,
        "meta_bstar": 0.0019299527,
        "meta_mean_motion_dot": 4.626e-05,
        "meta_mean_motion_ddot": 0,
        "tle_line1": "1 31151U 99025BHD 25352.47548378  .00004626  00000+0  19300-2 0  9991",
        "tle_line2": "2 31151  99.1347 358.1502 0056414   8.5947 351.6184 14.25869717960567"
      },
      "geometry": {
        "type": "Point",
        "coordinates": [
          -161.17055824400708,
          62.340429025820015
        ]
      }
    },
    {
      "type": "Feature",
      "properties": {
        "norad_id": 31152,
        "name": "FENGYUN 1C DEB",
        "group": "fengyun-1c-debris",
        "lat": 36.95268731107042,
        "lon": 167.95644265615138,
        "alt_km": 833.5686612815452,
        "timestamp": "2025-12-21T03:56:51.116335+00:00",
        "meta_object_name": "FENGYUN 1C DEB",
        "meta_object_id": "1999-025BHE",
        "meta_epoch": "2025-12-20T18:04:35.120064",
        "meta_mean_motion": 14.35854704,
        "meta_eccentricity": 0.0129687,
        "meta_inclination": 98.4147,
        "meta_ra_of_asc_node": 341.1616,
        "meta_arg_of_pericenter": 9.5427,
        "meta_mean_anomaly": 167.077,
        "meta_ephemeris_type": 0,
        "meta_classification_type": "U",
        "meta_norad_cat_id": 31152,
        "meta_element_set_no": 999,
        "meta_rev_at_epoch": 98163,
        "meta_bstar": 8.7062e-05,
        "meta_mean_motion_dot": 2.31e-06,
        "meta_mean_motion_ddot": 0,
        "tle_line1": "1 31152U 99025BHE 25354.75318426  .00000231  00000+0  87062-4 0  9994",
        "tle_line2": "2 31152  98.4147 341.1616 0129687   9.5427 167.0770 14.35854704981635"
      },
      "geometry": {
        "type": "Point",
        "coordinates": [
          167.95644265615138,
          36.95268731107042
        ]
      }
    },
    {
      "type": "Feature",
      "properties": {
        "norad_id": 31155,
        "name": "FENGYUN 1C DEB",
        "group": "fengyun-1c-debris",
        "lat": -61.8166220188358,
        "lon": 81.40018686920263,
        "alt_km": 824.3212618435309,
        "timestamp": "2025-12-21T03:56:51.116344+00:00",
        "meta_object_name": "FENGYUN 1C DEB",
        "meta_object_id": "1999-025BHH",
        "meta_epoch": "2025-12-19T02:47:45.519648",
        "meta_mean_motion": 14.08350557,
        "meta_eccentricity": 0.00886433,
        "meta_inclination": 99.0424,
        "meta_ra_of_asc_node": 62.0588,
        "meta_arg_of_pericenter": 344.8224,
        "meta_mean_anomaly": 15.0289,
        "meta_ephemeris_type": 0,
        "meta_classification_type": "U",
        "meta_norad_cat_id": 31155,
        "meta_element_set_no": 999,
        "meta_rev_at_epoch": 95677,
        "meta_bstar": 0.0010424946,
        "meta_mean_motion_dot": 1.804e-05,
        "meta_mean_motion_ddot": 0,
        "tle_line1": "1 31155U 99025BHH 25353.11649907  .00001804  00000+0  10425-2 0  9991",
        "tle_line2": "2 31155  99.0424  62.0588 0088643 344.8224  15.0289 14.08350557956777"
      },
      "geometry": {
        "type": "Point",
        "coordinates": [
          81.40018686920263,
          -61.8166220188358
        ]
      }
    },
    {
      "type": "Feature",
      "properties": {
        "norad_id": 31157,
        "name": "FENGYUN 1C DEB",
        "group": "fengyun-1c-debris",
        "lat": -50.83982681727511,
        "lon": -11.081056440237056,
        "alt_km": 751.9988111012635,
        "timestamp": "2025-12-21T03:56:51.116353+00:00",
        "meta_object_name": "FENGYUN 1C DEB",
        "meta_object_id": "1999-025BHK",
        "meta_epoch": "2025-12-15T04:42:10.430784",
        "meta_mean_motion": 14.22565872,
        "meta_eccentricity": 0.01000722,
        "meta_inclination": 98.4799,
        "meta_ra_of_asc_node": 332.6191,
        "meta_arg_of_pericenter": 319.3006,
        "meta_mean_anomaly": 40.0724,
        "meta_ephemeris_type": 0,
        "meta_classification_type": "U",
        "meta_norad_cat_id": 31157,
        "meta_element_set_no": 999,
        "meta_rev_at_epoch": 97018,
        "meta_bstar": 0.00031840475,
        "meta_mean_motion_dot": 7.06e-06,
        "meta_mean_motion_ddot": 0,
        "tle_line1": "1 31157U 99025BHK 25349.19595406  .00000706  00000+0  31840-3 0  9995",
        "tle_line2": "2 31157  98.4799 332.6191 0100072 319.3006  40.0724 14.22565872970186"
      },
      "geometry": {
        "type": "Point",
        "coordinates": [
          -11.081056440237056,
          -50.83982681727511
        ]
      }
    },
    {
      "type": "Feature",
      "properties": {
        "norad_id": 31158,
        "name": "FENGYUN 1C DEB",
        "group": "fengyun-1c-debris",
        "lat": 79.09719361152246,
        "lon": 20.58099357186549,
        "alt_km": 763.8019514409416,
        "timestamp": "2025-12-21T03:56:51.116362+00:00",
        "meta_object_name": "FENGYUN 1C DEB",
        "meta_object_id": "1999-025BHL",
        "meta_epoch": "2025-12-18T11:53:47.343840",
        "meta_mean_motion": 14.33281041,
        "meta_eccentricity": 0.0046976,
        "meta_inclination": 98.7798,
        "meta_ra_of_asc_node": 71.2296,
        "meta_arg_of_pericenter": 17.5806,
        "meta_mean_anomaly": 342.6991,
        "meta_ephemeris_type": 0,
        "meta_classification_type": "U",
        "meta_norad_cat_id": 31158,
        "meta_element_set_no": 999,
        "meta_rev_at_epoch": 64562,
        "meta_bstar": 0.0014168844,
        "meta_mean_motion_dot": 3.904e-05,
        "meta_mean_motion_ddot": 0,
        "tle_line1": "1 31158U 99025BHL 25352.49568685  .00003904  00000+0  14169-2 0  9999",
        "tle_line2": "2 31158  98.7798  71.2296 0046976  17.5806 342.6991 14.33281041645628"
      },
      "geometry": {
        "type": "Point",
        "coordinates": [
          20.58099357186549,
          79.09719361152246
        ]
      }
    },
    {
      "type": "Feature",
      "properties": {
        "norad_id": 31159,
        "name": "FENGYUN 1C DEB",
        "group": "fengyun-1c-debris",
        "lat": -2.9816144727818337,
        "lon": 134.900719926904,
        "alt_km": 521.2003927066935,
        "timestamp": "2025-12-21T03:56:51.116371+00:00",
        "meta_object_name": "FENGYUN 1C DEB",
        "meta_object_id": "1999-025BHM",
        "meta_epoch": "2025-12-17T14:54:06.147936",
        "meta_mean_motion": 15.39005719,
        "meta_eccentricity": 0.01094568,
        "meta_inclination": 97.7985,
        "meta_ra_of_asc_node": 311.5382,
        "meta_arg_of_pericenter": 356.4091,
        "meta_mean_anomaly": 3.6355,
        "meta_ephemeris_type": 0,
        "meta_classification_type": "U",
        "meta_norad_cat_id": 31159,
        "meta_element_set_no": 999,
        "meta_rev_at_epoch": 99628,
        "meta_bstar": 0.0013789415,
        "meta_mean_motion_dot": 0.00065992,
        "meta_mean_motion_ddot": 0,
        "tle_line1": "1 31159U 99025BHM 25351.62090449  .00065992  00000+0  13789-2 0  9994",
        "tle_line2": "2 31159  97.7985 311.5382 0109456 356.4091   3.6355 15.39005719996288"
      },
      "geometry": {
        "type": "Point",
        "coordinates": [
          134.900719926904,
          -2.9816144727818337
        ]
      }
    }
  ]
}